[{"OBJECT_NAME":"STARLINK-2015","OBJECT_ID":"2021-012U","EPOCH":"2026-03-09T22:09:23.404320","MEAN_MOTION":15.30181873,"ECCENTRICITY":0.00011937,"INCLINATION":53.1603,"RA_OF_ASC_NODE":331.3215,"ARG_OF_PERICENTER":95.8181,"MEAN_ANOMALY":264.2956,"EPHEMERIS_TYPE":0,"CLASSIFICATION_TYPE":"U","NORAD_CAT_ID":47638,"ELEMENT_SET_NO":999,"REV_AT_EPOCH":28139,"BSTAR":-4.4390938e-5,"MEAN_MOTION_DOT":-1.673e-5,"MEAN_MOTION_DDOT":0},{"OBJECT_NAME":"XCUBE-1","OBJECT_ID":"2024-247Z","EPOCH":"2026-03-09T11:35:28.885344","MEAN_MOTION":15.27910558,"ECCENTRICITY":0.00052355,"INCLINATION":44.9938,"RA_OF_ASC_NODE":117.7807,"ARG_OF_PERICENTER":331.1499,"MEAN_ANOMALY":28.9094,"EPHEMERIS_TYPE":0,"CLASSIFICATION_TYPE":"U","NORAD_CAT_ID":62400,"ELEMENT_SET_NO":999,"REV_AT_EPOCH":6770,"BSTAR":0.00036224252,"MEAN_MOTION_DOT":9.773e-5,"MEAN_MOTION_DDOT":0}]
